OBJECT_NAME,OBJECT_ID,EPOCH,MEAN_MOTION,ECCENTRICITY,INCLINATION,RA_OF_ASC_NODE,ARG_OF_PERICENTER,MEAN_ANOMALY,EPHEMERIS_TYPE,CLASSIFICATION_TYPE,NORAD_CAT_ID,ELEMENT_SET_NO,REV_AT_EPOCH,BSTAR,MEAN_MOTION_DOT,MEAN_MOTION_DDOT
SL-8 R/B,1985-006B,2026-06-09T07:16:47.271360,14.37831483,.00185872,74.0457,92.5712,341.0891,135.7605,0,U,15483,999,16719,.79368278E-4,.213E-5,0
SL-12 R/B(2),1985-042D,2026-06-09T13:20:35.171232,14.22004587,.00358707,71.1084,253.6388,339.3788,35.7635,0,U,15772,999,12745,.16179858E-4,-.12E-6,0
SL-14 R/B,1985-069B,2026-06-09T08:39:37.631808,14.86509390,.00173536,82.5265,298.7268,246.9029,113.0359,0,U,15945,999,18645,.43185709E-4,.407E-5,0
SL-16 R/B,1985-097B,2026-06-09T12:02:26.428992,14.16612197,.00055621,71.0038,307.2583,126.9759,301.4674,0,U,16182,999,10023,-.43594246E-4,-.135E-5,0
SL-14 R/B,1986-006B,2026-06-09T12:21:09.266112,14.86937850,.00755176,82.5261,173.3336,329.3029,30.3780,0,U,16496,999,16285,.55785953E-4,.551E-5,0
COSMOS 1743,1986-034A,2026-06-09T13:05:47.408640,15.66256130,.00036043,82.5281,336.8544,307.7418,52.3514,0,U,16719,999,19459,.42834911E-3,.44338E-3,0
SL-14 R/B,1986-046B,2026-06-09T13:00:44.396064,14.85665926,.00216141,82.4816,353.4003,285.5258,74.3571,0,U,16792,999,14004,.39239479E-4,.365E-5,0
SL-14 R/B,1986-055B,2026-06-09T10:07:19.995744,14.85717700,.00197275,82.5210,40.4340,32.7302,144.6481,0,U,16882,999,13298,.37886212E-4,.354E-5,0
AJISAI (EGS),1986-061A,2026-06-09T12:27:50.399712,12.44516736,.0011257,50.0060,170.9742,161.1096,326.6729,0,U,16908,999,47943,.10025829E-3,-.83E-6,0
SL-14 R/B,1987-024B,2026-06-09T13:00:49.125600,14.86208194,.0017238,82.5282,6.4371,320.4550,39.5407,0,U,17567,999,10177,.36750721E-4,.348E-5,0
COSMOS 1833,1987-027A,2026-06-09T07:42:49.811040,14.13044058,.00226003,70.9160,133.4022,68.0974,292.2547,0,U,17589,999,2326,.19623556E-3,.319E-5,0
SL-16 R/B,1987-027B,2026-06-09T12:32:19.792320,14.17172243,.00061596,71.0033,82.9799,321.4449,38.6235,0,U,17590,999,2835,.7368942E-4,.101E-5,0
SL-14 R/B,1987-038B,2026-06-09T12:24:31.444704,14.85440737,.00182488,82.5013,210.2969,217.4236,142.5711,0,U,17912,999,9286,.32783815E-4,.307E-5,0
COSMOS 1844,1987-041A,2026-06-09T12:58:39.846144,14.14569569,.00332183,70.8980,200.4364,246.5919,113.1708,0,U,17973,999,1657,-.5890425E-4,-.162E-5,0
SL-14 R/B,1987-055B,2026-06-09T13:05:11.030784,14.85705684,.00220431,82.4996,262.4326,71.4303,288.9305,0,U,18153,999,8357,.42476813E-4,.395E-5,0
COSMOS 1867,1987-060A,2026-06-09T09:05:16.334592,14.31514950,.00163532,65.0115,49.9271,282.0912,77.8340,0,U,18187,999,3306,.14691463E-4,-.61E-6,0
SL-14 R/B,1988-001B,2026-06-09T08:16:20.114400,14.85603871,.00166264,82.5126,109.1514,297.9151,62.0381,0,U,18749,999,5563,.446291E-4,.411E-5,0
COSMOS 1933,1988-020A,2026-06-09T11:02:55.932576,15.18665972,.00027407,82.5123,160.0870,218.3687,141.7352,0,U,18958,999,6415,.14991798E-3,.3136E-4,0
SL-3 R/B,1988-032B,2026-06-09T13:04:44.251968,15.20783068,.00236541,97.5251,143.5938,273.7411,86.1119,0,U,19046,999,6606,.1653987E-3,.3598E-4,0
SL-16 R/B,1988-039B,2026-06-09T12:15:45.785376,14.19629365,.00226737,71.0146,234.3895,204.4580,155.5472,0,U,19120,999,97141,.42619384E-4,.42E-6,0
COSMOS 1953,1988-050A,2026-06-08T18:39:53.993664,15.29860438,.00114463,82.5077,66.5128,152.4135,207.7715,0,U,19210,999,5170,.26229463E-3,.763E-4,0
SL-8 R/B,1988-053B,2026-06-09T11:57:41.808384,14.38964688,.00192018,74.0479,303.2304,101.4113,326.1216,0,U,19257,999,98980,.74133068E-4,.203E-5,0
COSMOS 1975,1988-093A,2026-06-09T08:49:44.019840,15.29226254,.00105429,82.5203,25.5671,199.1998,160.8846,0,U,19573,999,3341,.242411E-3,.6916E-4,0
SL-14 R/B,1988-093B,2026-06-09T12:42:00.433152,14.85735991,.00221983,82.5305,315.8349,94.0491,335.1939,0,U,19574,999,1465,.47797819E-4,.441E-5,0
SL-16 R/B,1988-102B,2026-06-09T12:25:55.828128,14.16166509,.00160745,71.0005,318.2763,236.0917,123.8678,0,U,19650,999,93989,-.4394793E-4,-.135E-5,0
INTERCOSMOS 24,1989-080A,2026-06-09T09:24:15.604128,12.59649045,.11883811,82.6074,44.7166,79.9768,293.3043,0,U,20261,999,67834,.22805479E-3,.807E-5,0
SL-14 R/B,1989-080C,2026-06-09T07:44:38.371776,12.50565697,.12291943,82.5922,114.3599,335.3968,19.2909,0,U,20262,999,67160,.11652284E-3,.391E-5,0
DELTA 1 R/B,1989-089B,2026-06-09T11:51:46.347552,14.50726201,.00685645,97.0640,353.2836,191.2612,168.7056,0,U,20323,999,90904,.84914094E-4,.309E-5,0
ARIANE 40 R/B,1990-005H,2026-06-09T09:37:23.792448,14.39923317,.00088393,98.2962,218.2587,291.2848,68.7397,0,U,20443,999,90600,.8044124E-4,.211E-5,0
DELTA 2 R/B(1),1990-008B,2026-06-09T01:00:21.341952,15.67552285,.00670071,35.6033,290.1009,36.7622,323.7688,0,U,20453,999,94042,.51791352E-3,.66682E-3,0
